SARSAT 7 (NOAA 15)      
1 25338U 98030A   20113.86143010  .00000045  00000-0  37289-4 0  9993
2 25338  98.7222 139.1811 0011451  67.7726 292.4667 14.25960065141059
METEOSAT-8 (MSG-1)      
1 27509U 02040B   20113.50041433  .00000141  00000-0  00000-0 0  9992
2 27509   6.6294  54.3237 0001264 339.0315  39.2060  1.00268576 64738
GPS BIIR-08             
1 27663U 03005A   20113.00881737 -.00000035  00000-0  00000-0 0  9992
2 27663  56.0946 304.1799 0113955  34.8575 326.1514  2.00555254126240
GPS BIIR-11             
1 28190U 04009A   20113.81158586 -.00000083  00000-0  00000-0 0  9994
2 28190  56.2780   4.9397 0091334  91.5251 283.1886  2.00563143117936
GPS BIIR-12             
1 28361U 04023A   20113.43844288  .00000044  00000-0  00000+0 0  9994
2 28361  54.0581 177.7136 0143197 234.3754 125.8361  2.00389155116007
GPS BIIR-13             
1 28474U 04045A   20112.66109510 -.00000071  00000-0  00000-0 0  9991
2 28474  54.9351  55.1819 0200031 266.3189 275.6159  2.00563111113351
SARSAT 10 (NOAA 18)     
1 28654U 05018A   20113.84083749  .00000070  00000-0  62562-4 0  9991
2 28654  99.0494 169.7348 0014618  32.1489 328.0571 14.12504708769063
GPS BIIR-14M            
1 28874U 05038A   20112.51733035 -.00000087  00000-0  00000-0 0  9994
2 28874  56.3838   2.3727 0134784 266.0045 275.1098  2.00562797106754
METEOSAT-9 (MSG-2)      
1 28912U 05049B   20113.70821025  .00000022  00000-0  00000-0 0  9996
2 28912   4.3086  70.3248 0001217 348.7130  50.7166  1.00266072 52518
GOES 13                 
1 29155U 06018A   20113.85118723  .00000041  00000-0  00000-0 0  9994
2 29155   0.2740 270.6219 0004273 299.9180   8.3880  1.00272991 20839
SARSAT 11 (METOP-A)     
1 29499U 06044A   20113.91238632  .00000011  00000-0  24183-4 0  9992
2 29499  98.5286 162.5881 0001751  87.0708  38.1094 14.21495761700819
GPS BIIR-16M            
1 29601U 06052A   20112.32383930 -.00000035  00000-0  00000-0 0  9997
2 29601  56.0808 303.1262 0078957  64.5102 296.3146  2.00559852 98327
GPS BIIR-17M            
1 32260U 07047A   20113.12620302  .00000046  00000-0  00000-0 0  9994
2 32260  53.1826 173.1232 0120389  49.3399 311.7869  2.00563694 91784
GPS BIIR-18M            
1 32384U 07062A   20113.22303088 -.00000084  00000-0  00000+0 0  9990
2 32384  56.4780   3.0152 0011330 111.5146  88.2577  2.00573244 90508
SARSAT 12 (NOAA 19)     
1 33591U 09005A   20113.91161183  .00000031  00000-0  41998-4 0  9991
2 33591  99.1968 117.8122 0013223 228.8423 131.1608 14.12404092577294
GOES 14                 
1 35491U 09033A   20113.87410388 -.00000093  00000-0  00000-0 0  9996
2 35491   0.1898  97.7935 0008258 129.0951 195.0256  1.00272068 39590
GOES 15                 
1 36411U 10008A   20113.68195226  .00000055  00000-0  00000-0 0  9990
2 36411   0.2489 275.4318 0002066 132.8792 280.3023  1.00266388 37154
GLONASS-K 1             
1 37372U 11009A   20113.95277603 -.00000068  00000-0  00000-0 0  9994
2 37372  65.8479  29.6179 0008472 237.9065  14.0161  2.13107354 71221
GPS BIIF-2              
1 37753U 11036A   20113.48449351 -.00000060  00000-0  00000+0 0  9997
2 37753  56.1388  59.4783 0095718  42.9049 136.9276  2.00569297 64208
GSAT0101 (GALILEO-PFM)  
1 37846U 11060A   20110.29366870 -.00000086  00000-0  00000-0 0  9996
2 37846  56.5924  42.9094 0004609 343.6468  16.3140  1.70475631 52895
GSAT0102 (GALILEO-FM2)  
1 37847U 11060B   20113.88293715 -.00000076  00000-0  00000-0 0  9991
2 37847  56.5952  42.8100 0005679 324.9516 123.8908  1.70475726 52833
LUCH 5A                 
1 37951U 11074B   20113.88416508 -.00000042  00000-0  00000+0 0  9991
2 37951   3.1380 116.6079 0004322 301.7681 278.1875  1.00271845 30660
METEOSAT-10 (MSG-3)     
1 38552U 12035B   20113.85293462  .00000062  00000-0  00000-0 0  9998
2 38552   0.9962   8.0904 0000589 356.9914 162.5490  1.00268779 28367
SARSAT 13 (METOP-B)     
1 38771U 12049A   20113.89138498  .00000004  00000-0  21913-4 0  9993
2 38771  98.6969 174.0303 0001850 130.1445 339.6600 14.21490692394130
GPS BIIF-3              
1 38833U 12053A   20113.22804571 -.00000023  00000-0  00000+0 0  9997
2 38833  53.6671 235.6445 0094857  37.1815 323.4467  2.00565211 55261
GSAT0103 (GALILEO-FM3)  
1 38857U 12055A   20113.26890899  .00000054  00000-0  00000-0 0  9991
2 38857  54.9675 163.3269 0004702 265.3053  94.7390  1.70473873 46851
GSAT0104 (GALILEO-FM4)  
1 38858U 12055B   20113.20325812  .00000054  00000-0  00000+0 0  9993
2 38858  54.9678 163.3281 0003538 270.7318  89.3255  1.70473822 46808
GPS BIIF-4              
1 39166U 13023A   20112.08791300 -.00000086  00000-0  00000+0 0  9992
2 39166  56.0498 359.0569 0080799  29.6609 330.8399  2.00565509 50788
INSAT-3D                
1 39216U 13038B   20113.86741578 -.00000156  00000-0  00000-0 0  9992
2 39216   0.0566 326.1639 0001819  78.9365 200.6815  1.00271055 24589
GPS BIIF-5              
1 39533U 14008A   20113.58754136 -.00000022  00000-0  00000-0 0  9997
2 39533  53.7857 241.0587 0045643 196.7621 163.0585  2.00564957 44645
LUCH 5V                 
1 39727U 14023A   20113.56299525 -.00000268  00000-0  00000-0 0  9995
2 39727   0.6165 324.3059 0004413 100.2153  83.8809  1.00267859539997
GPS BIIF-6              
1 39741U 14026A   20113.37095767 -.00000061  00000-0  00000-0 0  9996
2 39741  56.1141  59.0104 0021091 296.6910  63.0677  2.00550365 43472
GPS BIIF-7              
1 40105U 14045A   20112.95555825  .00000041  00000-0  00000-0 0  9999
2 40105  54.5844 178.2052 0013502 105.9626 254.2662  2.00554666 41047
GSAT0201 (GALILEO 5)    
1 40128U 14050A   20113.34412722 -.00000103  00000-0  00000-0 0  9992
2 40128  50.5751   3.6106 1664592  97.4617 281.6684  1.85519027 36667
GSAT0202 (GALILEO 6)    
1 40129U 14050B   20113.06906855 -.00000104  00000-0  00000+0 0  9997
2 40129  50.6135   2.6561 1662744  98.2785 280.8271  1.85519735 38763
GPS BIIF-8              
1 40294U 14068A   20113.32498399  .00000052  00000-0  00000-0 0  9999
2 40294  55.3165 119.1116 0026060  35.6230 324.5857  2.00575590 40145
GLONASS-K 2             
1 40315U 14075A   20113.81009817 -.00000009  00000-0  00000-0 0  9991
2 40315  63.9135 268.7599 0015250 203.5779  35.0500  2.13098582 41987
GPS BIIF-9              
1 40534U 15013A   20113.46341623 -.00000037  00000-0  00000+0 0  9992
2 40534  54.2717 297.1718 0046960  10.2553 349.8340  2.00571704 37197
GSAT0203 (GALILEO 7)    
1 40544U 15017A   20113.00713698 -.00000079  00000-0  00000+0 0  9998
2 40544  56.3869  42.9767 0003855 282.1258  77.8112  1.70474800 31551
GSAT0204 (GALILEO 8)    
1 40545U 15017B   20113.37513168 -.00000078  00000-0  00000-0 0  9999
2 40545  56.3937  42.9821 0001288 279.1820  80.7847  1.70475237 31562
GPS BIIF-10             
1 40730U 15033A   20113.12243141 -.00000082  00000-0  00000-0 0  9992
2 40730  55.5675 358.2136 0053685 351.6737   8.2858  2.00566133 34943
METEOSAT-11 (MSG-4)     
1 40732U 15034A   20113.85101543 -.00000003  00000-0  00000-0 0  9997
2 40732   0.4782 216.9363 0000770 247.8727  52.6251  1.00274426 17511
GSAT0205 (GALILEO 9)    
1 40889U 15045A   20113.61836370 -.00000018  00000-0  00000+0 0  9994
2 40889  56.1980 283.6346 0004517  31.6070 328.3821  1.70475294 28710
GSAT0206 (GALILEO 10)   
1 40890U 15045B   20112.66479074 -.00000019  00000-0  00000-0 0  9996
2 40890  56.1979 283.6572 0002763  35.0229 324.9602  1.70475392 28725
GPS BIIF-11             
1 41019U 15062A   20113.17390783  .00000053  00000-0  00000+0 0  9991
2 41019  55.3138 118.9424 0056679 211.1994 148.4980  2.00564564 32765
ELEKTRO-L 2             
1 41105U 15074A   20113.93798962 -.00000095  00000-0  00000-0 0  9993
2 41105   1.0680  98.0155 0002779 327.8579 199.2553  1.00271159 15996
GSAT0209 (GALILEO 12)   
1 41174U 15079A   20113.42361340  .00000056  00000-0  00000+0 0  9999
2 41174  54.9819 163.0199 0005590 301.5957  58.4481  1.70473911 27050
GSAT0208 (GALILEO 11)   
1 41175U 15079B   20110.71044036  .00000037  00000-0  00000-0 0  9999
2 41175  54.9798 163.0940 0004710 300.9997  59.0415  1.70474031 27015
GPS BIIF-12             
1 41328U 16007A   20113.26537816  .00000043  00000-0  00000+0 0  9993
2 41328  54.8214 178.6643 0040198 221.3034 138.4726  2.00559710 30829
GSAT0211 (GALILEO 14)   
1 41549U 16030A   20111.41918360 -.00000020  00000-0  00000+0 0  9992
2 41549  56.3416 283.5418 0002464 348.6076  11.3564  1.70475044 24313
GSAT0210 (GALILEO 13)   
1 41550U 16030B   20113.47188903 -.00000017  00000-0  00000+0 0  9990
2 41550  56.3392 283.4873 0000991 300.2093  59.7430  1.70475231 24347
INSAT-3DR               
1 41752U 16054A   20113.86584553 -.00000076  00000-0  00000-0 0  9990
2 41752   0.1415  92.0135 0011582 184.6258 320.4323  1.00273789 13281
GSAT0207 (GALILEO 15)   
1 41859U 16069A   20113.71656489  .00000056  00000-0  00000+0 0  9992
2 41859  54.6402 163.3885 0005529 290.5566  69.4828  1.70473829 21335
GSAT0212 (GALILEO 16)   
1 41860U 16069B   20112.39683182  .00000048  00000-0  00000-0 0  9999
2 41860  54.6372 163.4241 0004347 307.0898  52.9658  1.70473870 21333
GSAT0213 (GALILEO 17)   
1 41861U 16069C   20113.34930897  .00000054  00000-0  00000+0 0  9990
2 41861  54.6411 163.4013 0004849 272.4004  87.6422  1.70473898 21352
GSAT0214 (GALILEO 18)   
1 41862U 16069D   20112.90970374  .00000052  00000-0  00000-0 0  9995
2 41862  54.6382 163.4092 0004002 276.7474  83.3040  1.70473952 21334
GOES 16                 
1 41866U 16071A   20113.83609810 -.00000247  00000-0  00000-0 0  9996
2 41866   0.0167 291.1588 0000939 148.7221 357.2924  1.00272819 12589
GSAT-17                 
1 42815U 17040B   20113.86968392 -.00000257  00000-0  00000-0 0  9995
2 42815   0.0682  94.8613 0002574 209.5116 313.5797  1.00270706 10268
GSAT0215 (GALILEO 19)   
1 43055U 17079A   20113.39940019 -.00000018  00000-0  00000+0 0  9992
2 43055  56.3134 283.3324 0000315 302.5960  57.3630  1.70474293 14680
GSAT0216 (GALILEO 20)   
1 43056U 17079B   20113.69219765 -.00000017  00000-0  00000-0 0  9993
2 43056  56.3147 283.3238 0002196 276.8031  83.1332  1.70474419 14709
GSAT0217 (GALILEO 21)   
1 43057U 17079C   20113.32565587 -.00000018  00000-0  00000+0 0  9990
2 43057  56.3130 283.3346 0001933 304.8303  55.1138  1.70474357 14685
GSAT0218 (GALILEO 22)   
1 43058U 17079D   20113.54562941 -.00000017  00000-0  00000-0 0  9996
2 43058  56.3132 283.3259 0002615 269.2740  90.6577  1.70474367 14714
GOES 17                 
1 43226U 18022A   20113.75174098  .00000098  00000-0  00000-0 0  9995
2 43226   0.0194 289.8900 0000548 118.2085 296.5914  1.00272658  7881
GSAT0221 (GALILEO 25)   
1 43564U 18060A   20112.85891565 -.00000079  00000-0  00000-0 0  9997
2 43564  56.7751  42.5932 0005040 293.1889  66.7384  1.70475752 10855
GSAT0222 (GALILEO 26)   
1 43565U 18060B   20113.07876790 -.00000079  00000-0  00000+0 0  9995
2 43565  56.7775  42.5864 0005013 301.1633  58.7686  1.70475824 10905
GSAT0219 (GALILEO 23)   
1 43566U 18060C   20113.29900271 -.00000078  00000-0  00000+0 0  9991
2 43566  56.7784  42.5821 0004561 298.2108  61.7249  1.70475637 10887
GSAT0220 (GALILEO 24)   
1 43567U 18060D   20112.93229572 -.00000079  00000-0  00000-0 0  9992
2 43567  56.7774  42.5927 0004671 299.3610  60.5729  1.70475805 10861
BEIDOU-3 M13            
1 43622U 18072A   20113.57487549  .00000072  00000-0  00000-0 0  9990
2 43622  55.1170 137.7987 0008356 283.7873 198.3101  1.86231620 10812
BEIDOU-3 M14            
1 43623U 18072B   20113.43476476  .00000072  00000-0  00000-0 0  9993
2 43623  55.1189 137.7942 0006842 302.9488 175.4085  1.86231649 10816
METEOR-M2 2             
1 44387U 19038A   20113.91559890 -.00000031  00000-0  52632-5 0  9998
2 44387  98.6145  75.0761 0002275  58.9705 301.1696 14.23678217 41638
